ORBCOMM FM06            
1 25118U 97084G   26165.47165176  .00001073  00000+0  32801-3 0  9999
2 25118  45.0142  65.7847 0001423 323.1014 206.6105 14.47556677493992
ORBCOMM FM04            
1 25159U 98007C   26165.74685000  .00000731  00000+0  29588-3 0  9991
2 25159 107.9627 164.3967 0041287 328.9782  30.8921 14.35737195476244
ORBCOMM FM19            
1 25415U 98046C   26164.97943182  .00000656  00000+0  25400-3 0  9996
2 25415  44.9938 258.8098 0004526 268.8726 260.9102 14.39490987456315
ORBCOMM FM20            
1 25416U 98046D   26165.58148919  .00000507  00000+0  21260-3 0  9995
2 25416  44.9939 263.8413 0002152 241.5153 118.5478 14.38063527456419
ORBCOMM FM27            
1 25481U 98053G   26165.75787606  .00000769  00000+0  29193-3 0  9999
2 25481  45.0066 346.8922 0000782 182.9187 177.1657 14.39137230449880
ORBCOMM FM32            
1 25982U 99065C   26165.30124513  .00000418  00000+0  18690-3 0  9993
2 25982  45.0137 186.9003 0004639  19.5494 340.5532 14.37127226386676
ORBCOMM FM109           
1 40086U 14040A   26165.56426376  .00000354  00000+0  11109-3 0  9992
2 40086  47.0030 103.8874 0001867 241.0148 119.0551 14.58842225633967
ORBCOMM FM110           
1 41182U 15081D   26165.29599256  .00000633  00000+0  17014-3 0  9995
2 41182  47.0033  15.1133 0002589  58.4001 301.7137 14.58876713557202
ORBCOMM FM118           
1 41183U 15081E   26165.26175019  .00002411  00000+0  54598-3 0  9994
2 41183  47.0044  15.6060 0002907  13.2035 346.8927 14.58874403557301
ORBCOMM FM112           
1 41184U 15081F   26165.60879625  .00000537  00000+0  14973-3 0  9997
2 41184  46.9997 282.4402 0003589 206.9755 153.0944 14.58900840558570
ORBCOMM FM113           
1 41185U 15081G   26165.58533963  .00000343  00000+0  10887-3 0  9992
2 41185  47.0013 282.9257 0002139 214.6325 145.4422 14.58856169558552
ORBCOMM FM108           
1 41187U 15081J   26165.54775661  .00000303  00000+0  10032-3 0  9991
2 41187  47.0035 194.6770 0002809 212.6751 147.3961 14.58867428559697
ORBCOMM FM117           
1 41188U 15081K   26165.78720742  .00000279  00000+0  95337-4 0  9992
2 41188  46.9995 192.1789 0003366 215.0215 145.0450 14.58863849559775
ORBCOMM FM116           
1 41189U 15081L   26165.63071435  .00000570  00000+0  15661-3 0  9990
2 41189  47.0030 282.7098 0000676  42.8537 317.2401 14.58879865558561
